start=new Date('2022-02-22T00:00:00.000Z').valueOf();
sats=[{"REV_AT_EPOCH":"7387","OBJECT_NAME":"STARLINK-1906","LAUNCH_DATE":"2020-10-24","ELEMENT_SET_NO":"999","MEAN_ANOMALY":"301.4292","OBJECT_ID":"2020-074AC","TIME_SYSTEM":"UTC","SEMIMAJOR_AXIS":"6925.395","GP_ID":"196572385","MEAN_MOTION_DDOT":"0.0000000000000","ECCENTRICITY":"0.00013650","REF_FRAME":"TEME","OBJECT_TYPE":"PAYLOAD","PERIAPSIS":"546.315","SITE":"AFETR","TLE_LINE1":"1 46765U 20074AC  22052.89743655  .00000539  00000-0  55099-4 0  9998","ARG_OF_PERICENTER":"58.6830","APOAPSIS":"548.206","EPHEMERIS_TYPE":"0","CLASSIFICATION_TYPE":"U","BSTAR":"0.00005509900000","DECAY_DATE":null,"NORAD_CAT_ID":"46765","RCS_SIZE":"LARGE","MEAN_MOTION":"15.06384778","PERIOD":"95.593","EPOCH":"2022-02-21T21:32:18.517920","MEAN_MOTION_DOT":"0.00000539","RA_OF_ASC_NODE":"126.2089","FILE":"3312023","INCLINATION":"53.0549","MEAN_ELEMENT_THEORY":"SGP4","TLE_LINE2":"2 46765  53.0549 126.2089 0001365  58.6830 301.4292 15.06384778 73874","CENTER_NAME":"EARTH","COUNTRY_CODE":"US"},{"MEAN_ELEMENT_THEORY":"SGP4","FILE":"3312023","INCLINATION":"53.0536","MEAN_MOTION_DOT":"-0.00001707","RA_OF_ASC_NODE":"126.2231","COUNTRY_CODE":"US","CENTER_NAME":"EARTH","TLE_LINE2":"2 46766  53.0536 126.2231 0001439  49.7339 310.3776 15.06396085 73888","RCS_SIZE":"LARGE","MEAN_MOTION":"15.06396085","PERIOD":"95.592","EPOCH":"2022-02-21T21:21:40.882464","PERIAPSIS":"546.229","OBJECT_TYPE":"PAYLOAD","REF_FRAME":"TEME","ECCENTRICITY":"0.00014390","MEAN_MOTION_DDOT":"0.0000000000000","BSTAR":"-0.00009570900000","CLASSIFICATION_TYPE":"U","NORAD_CAT_ID":"46766","DECAY_DATE":null,"EPHEMERIS_TYPE":"0","APOAPSIS":"548.222","ARG_OF_PERICENTER":"49.7339","SITE":"AFETR","TLE_LINE1":"1 46766U 20074AD  22052.89005651 -.00001707  00000-0 -95709-4 0  9998","OBJECT_ID":"2020-074AD","TIME_SYSTEM":"UTC","SEMIMAJOR_AXIS":"6925.361","MEAN_ANOMALY":"310.3776","ELEMENT_SET_NO":"999","REV_AT_EPOCH":"7388","OBJECT_NAME":"STARLINK-1916","LAUNCH_DATE":"2020-10-24","GP_ID":"196572640"},{"SEMIMAJOR_AXIS":"6925.364","OBJECT_ID":"2020-074AE","TIME_SYSTEM":"UTC","MEAN_ANOMALY":"299.1128","ELEMENT_SET_NO":"999","LAUNCH_DATE":"2020-10-24","OBJECT_NAME":"STARLINK-1917","REV_AT_EPOCH":"7388","GP_ID":"196571387","PERIAPSIS":"546.016","OBJECT_TYPE":"PAYLOAD","REF_FRAME":"TEME","ECCENTRICITY":"0.00017510","MEAN_MOTION_DDOT":"0.0000000000000","NORAD_CAT_ID":"46767","DECAY_DATE":null,"BSTAR":"0.00016560000000","CLASSIFICATION_TYPE":"U","EPHEMERIS_TYPE":"0","APOAPSIS":"548.441","ARG_OF_PERICENTER":"61.0037","SITE":"AFETR","TLE_LINE1":"1 46767U 20074AE  22052.91953991  .00002186  00000-0  16560-3 0  9998","RCS_SIZE":"LARGE","PERIOD":"95.592","EPOCH":"2022-02-21T22:04:08.248224","MEAN_MOTION":"15.06395095","MEAN_ELEMENT_THEORY":"SGP4","INCLINATION":"53.0548","FILE":"3312023","RA_OF_ASC_NODE":"126.0873","MEAN_MOTION_DOT":"0.00002186","CENTER_NAME":"EARTH","COUNTRY_CODE":"US","TLE_LINE2":"2 46767  53.0548 126.0873 0001751  61.0037 299.1128 15.06395095 73886"},{"MEAN_MOTION":"15.06406075","EPOCH":"2022-02-21T22:09:26.351424","PERIOD":"95.592","RCS_SIZE":"LARGE","COUNTRY_CODE":"US","CENTER_NAME":"EARTH","TLE_LINE2":"2 46768  53.0545 126.0889 0001700  66.4570 293.6598 15.06406075 73887","MEAN_MOTION_DOT":"0.00001076","RA_OF_ASC_NODE":"126.0889","MEAN_ELEMENT_THEORY":"SGP4","FILE":"3312023","INCLINATION":"53.0545","GP_ID":"196571636","ELEMENT_SET_NO":"999","OBJECT_NAME":"STARLINK-1918","REV_AT_EPOCH":"7388","LAUNCH_DATE":"2020-10-24","OBJECT_ID":"2020-074AF","TIME_SYSTEM":"UTC","SEMIMAJOR_AXIS":"6925.330","MEAN_ANOMALY":"293.6598","ARG_OF_PERICENTER":"66.4570","TLE_LINE1":"1 46768U 20074AF  22052.92322166  .00001076  00000-0  91118-4 0  9994","SITE":"AFETR","CLASSIFICATION_TYPE":"U","BSTAR":"0.00009111800000","NORAD_CAT_ID":"46768","DECAY_DATE":null,"APOAPSIS":"548.372","EPHEMERIS_TYPE":"0","ECCENTRICITY":"0.00017000","MEAN_MOTION_DDOT":"0.0000000000000","PERIAPSIS":"546.018","REF_FRAME":"TEME","OBJECT_TYPE":"PAYLOAD"},{"OBJECT_NAME":"STARLINK-1919","REV_AT_EPOCH":"7427","LAUNCH_DATE":"2020-10-24","ELEMENT_SET_NO":"999","MEAN_ANOMALY":"69.8737","OBJECT_ID":"2020-074AG","TIME_SYSTEM":"UTC","SEMIMAJOR_AXIS":"6737.802","GP_ID":"196572886","MEAN_MOTION_DDOT":"0.0000000000000","ECCENTRICITY":"0.00051280","REF_FRAME":"TEME","OBJECT_TYPE":"PAYLOAD","PERIAPSIS":"356.212","SITE":"AFETR","TLE_LINE1":"1 46769U 20074AG  22052.72384536  .00260583  00000-0  20860-2 0  9996","ARG_OF_PERICENTER":"290.1727","EPHEMERIS_TYPE":"0","APOAPSIS":"363.122","BSTAR":"0.00208600000000","CLASSIFICATION_TYPE":"U","DECAY_DATE":null,"NORAD_CAT_ID":"46769","RCS_SIZE":"LARGE","MEAN_MOTION":"15.69731675","EPOCH":"2022-02-21T17:22:20.239104","PERIOD":"91.735","MEAN_MOTION_DOT":"0.00260583","RA_OF_ASC_NODE":"97.0655","FILE":"3312023","INCLINATION":"53.0543","MEAN_ELEMENT_THEORY":"SGP4","TLE_LINE2":"2 46769  53.0543  97.0655 0005128 290.1727  69.8737 15.69731675 74270","COUNTRY_CODE":"US","CENTER_NAME":"EARTH"},{"PERIAPSIS":"546.109","OBJECT_TYPE":"PAYLOAD","REF_FRAME":"TEME","ECCENTRICITY":"0.00015980","MEAN_MOTION_DDOT":"0.0000000000000","CLASSIFICATION_TYPE":"U","BSTAR":"-0.00003817300000","DECAY_DATE":null,"NORAD_CAT_ID":"46770","EPHEMERIS_TYPE":"0","APOAPSIS":"548.322","ARG_OF_PERICENTER":"59.2433","TLE_LINE1":"1 46770U 20074AH  22052.54630846 -.00000850  00000-0 -38173-4 0  9995","SITE":"AFETR","OBJECT_ID":"2020-074AH","TIME_SYSTEM":"UTC","SEMIMAJOR_AXIS":"6925.350","MEAN_ANOMALY":"300.8714","ELEMENT_SET_NO":"999","REV_AT_EPOCH":"7382","OBJECT_NAME":"STARLINK-1932","LAUNCH_DATE":"2020-10-24","GP_ID":"196573141","MEAN_ELEMENT_THEORY":"SGP4","FILE":"3312023","INCLINATION":"53.0537","MEAN_MOTION_DOT":"-0.00000850","RA_OF_ASC_NODE":"127.7725","COUNTRY_CODE":"US","CENTER_NAME":"EARTH","TLE_LINE2":"2 46770  53.0537 127.7725 0001598  59.2433 300.8714 15.06399420 73821","RCS_SIZE":"LARGE","MEAN_MOTION":"15.06399420","EPOCH":"2022-02-21T13:06:41.050944","PERIOD":"95.592"},{"TLE_LINE2":"2 46772  53.0526 127.8394 0001480  57.4439 302.6693 15.06403901 73826","COUNTRY_CODE":"US","CENTER_NAME":"EARTH","MEAN_MOTION_DOT":"0.00009281","RA_OF_ASC_NODE":"127.8394","FILE":"3312023","INCLINATION":"53.0526","MEAN_ELEMENT_THEORY":"SGP4","MEAN_MOTION":"15.06403901","EPOCH":"2022-02-21T12:46:49.772928","PERIOD":"95.592","RCS_SIZE":"LARGE","TLE_LINE1":"1 46772U 20074AK  22052.53252052  .00009281  00000-0  64109-3 0  9997","SITE":"AFETR","ARG_OF_PERICENTER":"57.4439","EPHEMERIS_TYPE":"0","APOAPSIS":"548.227","CLASSIFICATION_TYPE":"U","BSTAR":"0.00064109000000","DECAY_DATE":null,"NORAD_CAT_ID":"46772","MEAN_MOTION_DDOT":"0.0000000000000","ECCENTRICITY":"0.00014800","REF_FRAME":"TEME","OBJECT_TYPE":"PAYLOAD","PERIAPSIS":"546.177","GP_ID":"196571888","OBJECT_NAME":"STARLINK-1936","REV_AT_EPOCH":"7382","LAUNCH_DATE":"2020-10-24","ELEMENT_SET_NO":"999","MEAN_ANOMALY":"302.6693","OBJECT_ID":"2020-074AK","TIME_SYSTEM":"UTC","SEMIMAJOR_AXIS":"6925.337"},{"TIME_SYSTEM":"UTC","OBJECT_ID":"2020-074AM","SEMIMAJOR_AXIS":"6913.762","MEAN_ANOMALY":"277.3426","ELEMENT_SET_NO":"999","REV_AT_EPOCH":"7393","OBJECT_NAME":"STARLINK-1939","LAUNCH_DATE":"2020-10-24","GP_ID":"196572137","PERIAPSIS":"534.683","REF_FRAME":"TEME","OBJECT_TYPE":"PAYLOAD","ECCENTRICITY":"0.00013660","MEAN_MOTION_DDOT":"0.0000000000000","BSTAR":"0.00073586000000","CLASSIFICATION_TYPE":"U","NORAD_CAT_ID":"46774","DECAY_DATE":null,"APOAPSIS":"536.572","EPHEMERIS_TYPE":"0","ARG_OF_PERICENTER":"82.7720","TLE_LINE1":"1 46774U 20074AM  22052.91181273  .00011883  00000-0  73586-3 0  9997","SITE":"AFETR","RCS_SIZE":"LARGE","MEAN_MOTION":"15.10188301","EPOCH":"2022-02-21T21:53:00.619872","PERIOD":"95.352","MEAN_ELEMENT_THEORY":"SGP4","FILE":"3312023","INCLINATION":"53.0512","MEAN_MOTION_DOT":"0.00011883","RA_OF_ASC_NODE":"122.9091","CENTER_NAME":"EARTH","COUNTRY_CODE":"US","TLE_LINE2":"2 46774  53.0512 122.9091 0001366  82.7720 277.3426 15.10188301 73933"},{"INCLINATION":"53.0562","FILE":"3312023","MEAN_ELEMENT_THEORY":"SGP4","RA_OF_ASC_NODE":"123.2843","MEAN_MOTION_DOT":"0.00387402","TLE_LINE2":"2 46776  53.0562 123.2843 0002070  51.3916 308.7271 15.34297076 73899","CENTER_NAME":"EARTH","COUNTRY_CODE":"US","RCS_SIZE":"LARGE","EPOCH":"2022-02-21T14:45:49.409280","PERIOD":"93.854","MEAN_MOTION":"15.34297076","REF_FRAME":"TEME","OBJECT_TYPE":"PAYLOAD","PERIAPSIS":"461.595","MEAN_MOTION_DDOT":"0.0000000000000","ECCENTRICITY":"0.00020700","EPHEMERIS_TYPE":"0","APOAPSIS":"464.427","NORAD_CAT_ID":"46776","DECAY_DATE":null,"BSTAR":"0.01093200000000","CLASSIFICATION_TYPE":"U","SITE":"AFETR","TLE_LINE1":"1 46776U 20074AP  22052.61515520  .00387402  00000-0  10932-1 0  9999","ARG_OF_PERICENTER":"51.3916","MEAN_ANOMALY":"308.7271","SEMIMAJOR_AXIS":"6841.146","TIME_SYSTEM":"UTC","OBJECT_ID":"2020-074AP","LAUNCH_DATE":"2020-10-24","REV_AT_EPOCH":"7389","OBJECT_NAME":"STARLINK-1946","ELEMENT_SET_NO":"999","GP_ID":"196572386"},{"MEAN_ELEMENT_THEORY":"SGP4","INCLINATION":"53.0546","FILE":"3312023","RA_OF_ASC_NODE":"101.5060","MEAN_MOTION_DOT":"-0.00001214","CENTER_NAME":"EARTH","COUNTRY_CODE":"US","TLE_LINE2":"2 46779  53.0546 101.5060 0001454  61.1691 298.9444 15.06384457 74216","RCS_SIZE":"LARGE","EPOCH":"2022-02-21T19:52:06.736800","PERIOD":"95.593","MEAN_MOTION":"15.06384457","PERIAPSIS":"546.254","OBJECT_TYPE":"PAYLOAD","REF_FRAME":"TEME","ECCENTRICITY":"0.00014540","MEAN_MOTION_DDOT":"0.0000000000000","NORAD_CAT_ID":"46779","DECAY_DATE":null,"BSTAR":"-0.00006263100000","CLASSIFICATION_TYPE":"U","APOAPSIS":"548.268","EPHEMERIS_TYPE":"0","ARG_OF_PERICENTER":"61.1691","TLE_LINE1":"1 46779U 20074AS  22052.82785575 -.00001214  00000-0 -62631-4 0  9996","SITE":"AFETR","SEMIMAJOR_AXIS":"6925.396","TIME_SYSTEM":"UTC","OBJECT_ID":"2020-074AS","MEAN_ANOMALY":"298.9444","ELEMENT_SET_NO":"999","LAUNCH_DATE":"2020-10-24","REV_AT_EPOCH":"7421","OBJECT_NAME":"STARLINK-1798","GP_ID":"196572641"}];
